ONEWEB-0379             
1 49305U 21090AC  26024.25134267  .00000240  00000+0  61221-3 0  9997
2 49305  87.9030 318.3953 0001761  74.0644 286.0680 13.14505390208654
ONEWEB-0380             
1 49306U 21090AD  26023.82995431 -.00000045  00000+0 -14559-3 0  9995
2 49306  87.9240 333.7035 0001998  82.7612 277.3748 13.19726988207383
ONEWEB-0381             
1 49307U 21090AE  26024.22041218  .00000059  00000+0  11277-3 0  9993
2 49307  87.9229 303.1637 0001933  74.6225 285.5122 13.20774406210829
ONEWEB-0382             
1 49308U 21090AF  26024.20778325  .00000119  00000+0  26196-3 0  9991
2 49308  87.9231 303.1625 0001978  70.5847 289.5500 13.20773111210819
ONEWEB-0383             
1 49309U 21090AG  26024.24501839  .00000128  00000+0  31114-3 0  9996
2 49309  87.9032 318.3819 0001819  71.6958 288.4369 13.14504300208689
ONEWEB-0384             
1 49310U 21090AH  26024.20025835  .00000152  00000+0  34178-3 0  9991
2 49310  87.9239 303.2036 0002101  64.4411 295.6939 13.20803539210828
ONEWEB-0385             
1 49311U 21090AJ  26024.19989993  .00000154  00000+0  34567-3 0  9998
2 49311  87.9229 303.1681 0001811  74.8474 285.2860 13.20770990210792
ONEWEB-0386             
1 49312U 21090AK  26024.14148759  .00000022  00000+0  21249-4 0  9999
2 49312  87.9233 303.1645 0001879  69.7684 290.3652 13.20774624210804
ONEWEB-0387             
1 49313U 21090AL  26024.20147168  .00000153  00000+0  34507-3 0  9995
2 49313  87.9223 303.1944 0001990  81.1821 278.9538 13.20774006210811
ONEWEB-0388             
1 49314U 21090AM  26024.12848113  .00000011  00000+0 -41415-5 0  9997
2 49314  87.9238 333.6428 0001901  76.7184 283.4161 13.19727083207413
ONEWEB-0389             
1 50469U 21132A   26024.29968213 -.00000027  00000+0 -10241-3 0  9998
2 50469  87.9083  34.4638 0002203  88.5756 271.5628 13.17649300199133
ONEWEB-0390             
1 50470U 21132B   26023.76981673  .00000061  00000+0  12432-3 0  9996
2 50470  87.9084  34.5701 0001852  99.2745 260.8596 13.17649020199060
ONEWEB-0391             
1 50471U 21132C   26024.30304438  .00000099  00000+0  22256-3 0  9992
2 50471  87.9079  34.4731 0002676  96.1856 263.9580 13.17651437199131
ONEWEB-0392             
1 50472U 21132D   26024.25749918 -.00000033  00000+0 -11856-3 0  9997
2 50472  87.9093  34.4382 0002193  90.0302 270.1081 13.17649931199168
ONEWEB-0393             
1 50473U 21132E   26024.30657099  .00000058  00000+0  11581-3 0  9992
2 50473  87.9089  34.4515 0002018  90.4218 269.7144 13.17648468199166
ONEWEB-0394             
1 50474U 21132F   26023.70486866  .00000048  00000+0  89352-4 0  9999
2 50474  87.9199   4.1230 0001983  82.1722 277.9636 13.18685733202557
ONEWEB-0395             
1 50475U 21132G   26024.11873159  .00000249  00000+0  66779-3 0  9991
2 50475  87.8817  49.7493 0001956 100.0226 260.1123 13.11420218196835
